[
  {
    "OBJECT_NAME": "STARLINK-4036",
    "OBJECT_ID": "22062H",
    "EPOCH": "2025-11-10T23:28:17.132448",
    "MEAN_MOTION": 15.08847646,
    "ECCENTRICITY": 0.0001575,
    "INCLINATION": 53.2179,
    "RA_OF_ASC_NODE": 207.0412,
    "ARG_OF_PERICENTER": 77.8643,
    "MEAN_ANOMALY": 282.2526,
    "EPHEMERIS_TYPE": 0,
    "CLASSIFICATION_TYPE": "U",
    "NORAD_CAT_ID": 52837,
    "ELEMENT_SET_NO": 999,
    "REV_AT_EPOCH": 18786,
    "BSTAR": 0.00016104,
    "MEAN_MOTION_DOT": 2.276e-05,
    "MEAN_MOTION_DDOT": 0.0,
    "TLE_LINE1": "1 52837U 22062H   25314.97797607  .00002276  00000+0  16104-3 0  9995",
    "TLE_LINE2": "2 52837  53.2179 207.0412 0001575  77.8643 282.2526 15.08847646187869",
    "COMMENT": "Grouped by shell and plane from TLE"
  },
  {
    "OBJECT_NAME": "STARLINK-4092",
    "OBJECT_ID": "22062J",
    "EPOCH": "2025-11-11T02:44:21.304608",
    "MEAN_MOTION": 15.08843908,
    "ECCENTRICITY": 0.000139,
    "INCLINATION": 53.2163,
    "RA_OF_ASC_NODE": 206.4163,
    "ARG_OF_PERICENTER": 91.4457,
    "MEAN_ANOMALY": 268.6695,
    "EPHEMERIS_TYPE": 0,
    "CLASSIFICATION_TYPE": "U",
    "NORAD_CAT_ID": 52838,
    "ELEMENT_SET_NO": 999,
    "REV_AT_EPOCH": 18788,
    "BSTAR": 0.00013736,
    "MEAN_MOTION_DOT": 1.899e-05,
    "MEAN_MOTION_DDOT": 0.0,
    "TLE_LINE1": "1 52838U 22062J   25315.11413547  .00001899  00000+0  13736-3 0  9999",
    "TLE_LINE2": "2 52838  53.2163 206.4163 0001390  91.4457 268.6695 15.08843908187883",
    "COMMENT": "Grouped by shell and plane from TLE"
  },
  {
    "OBJECT_NAME": "STARLINK-4048",
    "OBJECT_ID": "22062K",
    "EPOCH": "2025-11-11T02:28:27.322464",
    "MEAN_MOTION": 15.08844235,
    "ECCENTRICITY": 0.0001264,
    "INCLINATION": 53.2166,
    "RA_OF_ASC_NODE": 206.4773,
    "ARG_OF_PERICENTER": 102.2471,
    "MEAN_ANOMALY": 257.8662,
    "EPHEMERIS_TYPE": 0,
    "CLASSIFICATION_TYPE": "U",
    "NORAD_CAT_ID": 52839,
    "ELEMENT_SET_NO": 999,
    "REV_AT_EPOCH": 18788,
    "BSTAR": 5.1307e-05,
    "MEAN_MOTION_DOT": 5.29e-06,
    "MEAN_MOTION_DDOT": 0.0,
    "TLE_LINE1": "1 52839U 22062K   25315.10309401  .00000529  00000+0  51307-4 0  9998",
    "TLE_LINE2": "2 52839  53.2166 206.4773 0001264 102.2471 257.8662 15.08844235187889",
    "COMMENT": "Grouped by shell and plane from TLE"
  },
  {
    "OBJECT_NAME": "STARLINK-4049",
    "OBJECT_ID": "22062L",
    "EPOCH": "2025-11-11T02:49:40.690848",
    "MEAN_MOTION": 15.08848679,
    "ECCENTRICITY": 0.0001379,
    "INCLINATION": 53.2153,
    "RA_OF_ASC_NODE": 206.5263,
    "ARG_OF_PERICENTER": 103.1989,
    "MEAN_ANOMALY": 256.9157,
    "EPHEMERIS_TYPE": 0,
    "CLASSIFICATION_TYPE": "U",
    "NORAD_CAT_ID": 52840,
    "ELEMENT_SET_NO": 999,
    "REV_AT_EPOCH": 18788,
    "BSTAR": 0.0001486,
    "MEAN_MOTION_DOT": 2.078e-05,
    "MEAN_MOTION_DDOT": 0.0,
    "TLE_LINE1": "1 52840U 22062L   25315.11783207  .00002078  00000+0  14860-3 0  9994",
    "TLE_LINE2": "2 52840  53.2153 206.5263 0001379 103.1989 256.9157 15.08848679187888",
    "COMMENT": "Grouped by shell and plane from TLE"
  },
  {
    "OBJECT_NAME": "STARLINK-4065",
    "OBJECT_ID": "22062M",
    "EPOCH": "2025-11-11T02:12:34.108416",
    "MEAN_MOTION": 15.08859142,
    "ECCENTRICITY": 0.0001078,
    "INCLINATION": 53.2135,
    "RA_OF_ASC_NODE": 206.5274,
    "ARG_OF_PERICENTER": 81.2448,
    "MEAN_ANOMALY": 278.8666,
    "EPHEMERIS_TYPE": 0,
    "CLASSIFICATION_TYPE": "U",
    "NORAD_CAT_ID": 52841,
    "ELEMENT_SET_NO": 999,
    "REV_AT_EPOCH": 18788,
    "BSTAR": 0.0004968500000000001,
    "MEAN_MOTION_DOT": 7.632e-05,
    "MEAN_MOTION_DDOT": 0.0,
    "TLE_LINE1": "1 52841U 22062M   25315.09206144  .00007632  00000+0  49685-3 0  9996",
    "TLE_LINE2": "2 52841  53.2135 206.5274 0001078  81.2448 278.8666 15.08859142187888",
    "COMMENT": "Grouped by shell and plane from TLE"
  },
  {
    "OBJECT_NAME": "STARLINK-4046",
    "OBJECT_ID": "22062N",
    "EPOCH": "2025-11-11T02:33:45.682272",
    "MEAN_MOTION": 15.08833071,
    "ECCENTRICITY": 0.0001453,
    "INCLINATION": 53.2165,
    "RA_OF_ASC_NODE": 206.3823,
    "ARG_OF_PERICENTER": 88.0587,
    "MEAN_ANOMALY": 272.0572,
    "EPHEMERIS_TYPE": 0,
    "CLASSIFICATION_TYPE": "U",
    "NORAD_CAT_ID": 52842,
    "ELEMENT_SET_NO": 999,
    "REV_AT_EPOCH": 18788,
    "BSTAR": 0.0,
    "MEAN_MOTION_DOT": -2.611e-05,
    "MEAN_MOTION_DDOT": 0.0,
    "TLE_LINE1": "1 52842U 22062N   25315.10677873 -.00002611  00000+0 -14605-3 0  9998",
    "TLE_LINE2": "2 52842  53.2165 206.3823 0001453  88.0587 272.0572 15.08833071187881",
    "COMMENT": "Grouped by shell and plane from TLE"
  },
  {
    "OBJECT_NAME": "STARLINK-4188",
    "OBJECT_ID": "22062P",
    "EPOCH": "2025-11-11T02:01:55.122528",
    "MEAN_MOTION": 15.08874973,
    "ECCENTRICITY": 0.0001336,
    "INCLINATION": 53.2168,
    "RA_OF_ASC_NODE": 206.5586,
    "ARG_OF_PERICENTER": 82.7983,
    "MEAN_ANOMALY": 277.3161,
    "EPHEMERIS_TYPE": 0,
    "CLASSIFICATION_TYPE": "U",
    "NORAD_CAT_ID": 52843,
    "ELEMENT_SET_NO": 999,
    "REV_AT_EPOCH": 18788,
    "BSTAR": 0.00032447,
    "MEAN_MOTION_DOT": 4.885e-05,
    "MEAN_MOTION_DDOT": 0.0,
    "TLE_LINE1": "1 52843U 22062P   25315.08466577  .00004885  00000+0  32447-3 0  9990",
    "TLE_LINE2": "2 52843  53.2168 206.5586 0001336  82.7983 277.3161 15.08874973187882",
    "COMMENT": "Grouped by shell and plane from TLE"
  },
  {
    "OBJECT_NAME": "STARLINK-4208",
    "OBJECT_ID": "22062Q",
    "EPOCH": "2025-11-11T02:23:10.157568",
    "MEAN_MOTION": 15.08845575,
    "ECCENTRICITY": 0.0001305,
    "INCLINATION": 53.2157,
    "RA_OF_ASC_NODE": 206.4945,
    "ARG_OF_PERICENTER": 87.1971,
    "MEAN_ANOMALY": 272.9171,
    "EPHEMERIS_TYPE": 0,
    "CLASSIFICATION_TYPE": "U",
    "NORAD_CAT_ID": 52844,
    "ELEMENT_SET_NO": 999,
    "REV_AT_EPOCH": 18788,
    "BSTAR": 0.00010442,
    "MEAN_MOTION_DOT": 1.375e-05,
    "MEAN_MOTION_DDOT": 0.0,
    "TLE_LINE1": "1 52844U 22062Q   25315.09942312  .00001375  00000+0  10442-3 0  9990",
    "TLE_LINE2": "2 52844  53.2157 206.4945 0001305  87.1971 272.9171 15.08845575187889",
    "COMMENT": "Grouped by shell and plane from TLE"
  },
  {
    "OBJECT_NAME": "STARLINK-4168",
    "OBJECT_ID": "22062R",
    "EPOCH": "2025-11-11T02:07:16.907232",
    "MEAN_MOTION": 15.08841416,
    "ECCENTRICITY": 0.0001263,
    "INCLINATION": 53.2167,
    "RA_OF_ASC_NODE": 206.6108,
    "ARG_OF_PERICENTER": 78.0919,
    "MEAN_ANOMALY": 282.0215,
    "EPHEMERIS_TYPE": 0,
    "CLASSIFICATION_TYPE": "U",
    "NORAD_CAT_ID": 52845,
    "ELEMENT_SET_NO": 999,
    "REV_AT_EPOCH": 18788,
    "BSTAR": 0.00011223,
    "MEAN_MOTION_DOT": 1.499e-05,
    "MEAN_MOTION_DDOT": 0.0,
    "TLE_LINE1": "1 52845U 22062R   25315.08839013  .00001499  00000+0  11223-3 0  9998",
    "TLE_LINE2": "2 52845  53.2167 206.6108 0001263  78.0919 282.0215 15.08841416187889",
    "COMMENT": "Grouped by shell and plane from TLE"
  },
  {
    "OBJECT_NAME": "STARLINK-4212",
    "OBJECT_ID": "22062S",
    "EPOCH": "2025-11-11T02:08:39.070176",
    "MEAN_MOTION": 15.08848468,
    "ECCENTRICITY": 0.0001139,
    "INCLINATION": 53.2182,
    "RA_OF_ASC_NODE": 206.5494,
    "ARG_OF_PERICENTER": 88.9396,
    "MEAN_ANOMALY": 271.1727,
    "EPHEMERIS_TYPE": 0,
    "CLASSIFICATION_TYPE": "U",
    "NORAD_CAT_ID": 52846,
    "ELEMENT_SET_NO": 999,
    "REV_AT_EPOCH": 18788,
    "BSTAR": 0.0,
    "MEAN_MOTION_DOT": -5.56e-06,
    "MEAN_MOTION_DDOT": 0.0,
    "TLE_LINE1": "1 52846U 22062S   25315.08934109 -.00000556  00000+0 -16869-4 0  9998",
    "TLE_LINE2": "2 52846  53.2182 206.5494 0001139  88.9396 271.1727 15.08848468187886",
    "COMMENT": "Grouped by shell and plane from TLE"
  },
  {
    "OBJECT_NAME": "STARLINK-4206",
    "OBJECT_ID": "22062T",
    "EPOCH": "2025-11-11T01:51:22.430880",
    "MEAN_MOTION": 15.08832632,
    "ECCENTRICITY": 0.0001403,
    "INCLINATION": 53.2175,
    "RA_OF_ASC_NODE": 206.5925,
    "ARG_OF_PERICENTER": 85.4879,
    "MEAN_ANOMALY": 274.6274,
    "EPHEMERIS_TYPE": 0,
    "CLASSIFICATION_TYPE": "U",
    "NORAD_CAT_ID": 52847,
    "ELEMENT_SET_NO": 999,
    "REV_AT_EPOCH": 18788,
    "BSTAR": 0.00025939,
    "MEAN_MOTION_DOT": 3.842e-05,
    "MEAN_MOTION_DDOT": 0.0,
    "TLE_LINE1": "1 52847U 22062T   25315.07734295  .00003842  00000+0  25939-3 0  9998",
    "TLE_LINE2": "2 52847  53.2175 206.5925 0001403  85.4879 274.6274 15.08832632187881",
    "COMMENT": "Grouped by shell and plane from TLE"
  },
  {
    "OBJECT_NAME": "STARLINK-4202",
    "OBJECT_ID": "22062U",
    "EPOCH": "2025-11-11T02:17:51.867744",
    "MEAN_MOTION": 15.08839792,
    "ECCENTRICITY": 0.0001423,
    "INCLINATION": 53.217,
    "RA_OF_ASC_NODE": 206.5094,
    "ARG_OF_PERICENTER": 86.6022,
    "MEAN_ANOMALY": 273.5133,
    "EPHEMERIS_TYPE": 0,
    "CLASSIFICATION_TYPE": "U",
    "NORAD_CAT_ID": 52848,
    "ELEMENT_SET_NO": 999,
    "REV_AT_EPOCH": 18788,
    "BSTAR": 0.00013604,
    "MEAN_MOTION_DOT": 1.878e-05,
    "MEAN_MOTION_DDOT": 0.0,
    "TLE_LINE1": "1 52848U 22062U   25315.09573921  .00001878  00000+0  13604-3 0  9991",
    "TLE_LINE2": "2 52848  53.2170 206.5094 0001423  86.6022 273.5133 15.08839792187885",
    "COMMENT": "Grouped by shell and plane from TLE"
  },
  {
    "OBJECT_NAME": "STARLINK-4187",
    "OBJECT_ID": "22062W",
    "EPOCH": "2025-11-11T02:45:47.067840",
    "MEAN_MOTION": 15.08846795,
    "ECCENTRICITY": 0.0001927,
    "INCLINATION": 53.2178,
    "RA_OF_ASC_NODE": 206.7858,
    "ARG_OF_PERICENTER": 61.8918,
    "MEAN_ANOMALY": 298.2269,
    "EPHEMERIS_TYPE": 0,
    "CLASSIFICATION_TYPE": "U",
    "NORAD_CAT_ID": 52850,
    "ELEMENT_SET_NO": 999,
    "REV_AT_EPOCH": 18788,
    "BSTAR": 0.00011805000000000001,
    "MEAN_MOTION_DOT": 1.591e-05,
    "MEAN_MOTION_DDOT": 0.0,
    "TLE_LINE1": "1 52850U 22062W   25315.11512810  .00001591  00000+0  11805-3 0  9990",
    "TLE_LINE2": "2 52850  53.2178 206.7858 0001927  61.8918 298.2269 15.08846795187889",
    "COMMENT": "Grouped by shell and plane from TLE"
  }
]